{
  "type": "FeatureCollection",
  "features": [
    {
      "type": "Feature",
      "properties": {
        "norad_id": 31805,
        "name": "FENGYUN 1C DEB",
        "group": "fengyun-1c-debris",
        "lat": -14.901580703053943,
        "lon": -33.246183716608776,
        "alt_km": 1203.6765767944235,
        "timestamp": "2025-12-05T18:53:13.565954+00:00",
        "meta_object_name": "FENGYUN 1C DEB",
        "meta_object_id": "1999-025CGT",
        "meta_epoch": "2025-12-01T05:23:40.108128",
        "meta_mean_motion": 14.02670631,
        "meta_eccentricity": 0.0447098,
        "meta_inclination": 98.3662,
        "meta_ra_of_asc_node": 320.3008,
        "meta_arg_of_pericenter": 191.6465,
        "meta_mean_anomaly": 167.4086,
        "meta_ephemeris_type": 0,
        "meta_classification_type": "U",
        "meta_norad_cat_id": 31805,
        "meta_element_set_no": 999,
        "meta_rev_at_epoch": 62202,
        "meta_bstar": 0.0013339,
        "meta_mean_motion_dot": 4.977e-05,
        "meta_mean_motion_ddot": 0,
        "tle_line1": "1 31805U 99025CGT 25335.22476977  .00004977  00000+0  13339-2 0  9991",
        "tle_line2": "2 31805  98.3662 320.3008 0447098 191.6465 167.4086 14.02670631622027"
      },
      "geometry": {
        "type": "Point",
        "coordinates": [
          -33.246183716608776,
          -14.901580703053943
        ]
      }
    },
    {
      "type": "Feature",
      "properties": {
        "norad_id": 31807,
        "name": "FENGYUN 1C DEB",
        "group": "fengyun-1c-debris",
        "lat": 31.400177697555538,
        "lon": -64.22411173665076,
        "alt_km": 656.0638530098149,
        "timestamp": "2025-12-05T18:53:13.565963+00:00",
        "meta_object_name": "FENGYUN 1C DEB",
        "meta_object_id": "1999-025CGV",
        "meta_epoch": "2025-12-04T02:30:33.983136",
        "meta_mean_motion": 14.51918423,
        "meta_eccentricity": 0.01055508,
        "meta_inclination": 99.0768,
        "meta_ra_of_asc_node": 108.359,
        "meta_arg_of_pericenter": 188.356,
        "meta_mean_anomaly": 171.5879,
        "meta_ephemeris_type": 0,
        "meta_classification_type": "U",
        "meta_norad_cat_id": 31807,
        "meta_element_set_no": 999,
        "meta_rev_at_epoch": 65180,
        "meta_bstar": 0.0021745079,
        "meta_mean_motion_dot": 9.385e-05,
        "meta_mean_motion_ddot": 0,
        "tle_line1": "1 31807U 99025CGV 25338.10455999  .00009385  00000+0  21745-2 0  9992",
        "tle_line2": "2 31807  99.0768 108.3590 0105550 188.3560 171.5879 14.51918423651809"
      },
      "geometry": {
        "type": "Point",
        "coordinates": [
          -64.22411173665076,
          31.400177697555538
        ]
      }
    },
    {
      "type": "Feature",
      "properties": {
        "norad_id": 31808,
        "name": "FENGYUN 1C DEB",
        "group": "fengyun-1c-debris",
        "lat": 76.81204567331997,
        "lon": 122.25543835528214,
        "alt_km": 693.1089290204482,
        "timestamp": "2025-12-05T18:53:13.565973+00:00",
        "meta_object_name": "FENGYUN 1C DEB",
        "meta_object_id": "1999-025CGW",
        "meta_epoch": "2025-12-03T07:09:51.542208",
        "meta_mean_motion": 14.56458132,
        "meta_eccentricity": 0.0037987,
        "meta_inclination": 99.2042,
        "meta_ra_of_asc_node": 163.2972,
        "meta_arg_of_pericenter": 170.223,
        "meta_mean_anomaly": 189.9712,
        "meta_ephemeris_type": 0,
        "meta_classification_type": "U",
        "meta_norad_cat_id": 31808,
        "meta_element_set_no": 999,
        "meta_rev_at_epoch": 57465,
        "meta_bstar": 0.0070427,
        "meta_mean_motion_dot": 0.00031692,
        "meta_mean_motion_ddot": 0,
        "tle_line1": "1 31808U 99025CGW 25337.29851322  .00031692  00000+0  70427-2 0  9999",
        "tle_line2": "2 31808  99.2042 163.2972 0037987 170.2230 189.9712 14.56458132574650"
      },
      "geometry": {
        "type": "Point",
        "coordinates": [
          122.25543835528214,
          76.81204567331997
        ]
      }
    },
    {
      "type": "Feature",
      "properties": {
        "norad_id": 31810,
        "name": "FENGYUN 1C DEB",
        "group": "fengyun-1c-debris",
        "lat": -16.26805956588756,
        "lon": 172.91048392665186,
        "alt_km": 618.1338076066531,
        "timestamp": "2025-12-05T18:53:13.565983+00:00",
        "meta_object_name": "FENGYUN 1C DEB",
        "meta_object_id": "1999-025CGY",
        "meta_epoch": "2025-12-02T18:34:02.794944",
        "meta_mean_motion": 14.45755419,
        "meta_eccentricity": 0.02141225,
        "meta_inclination": 98.2699,
        "meta_ra_of_asc_node": 352.4032,
        "meta_arg_of_pericenter": 170.6735,
        "meta_mean_anomaly": 189.8534,
        "meta_ephemeris_type": 0,
        "meta_classification_type": "U",
        "meta_norad_cat_id": 31810,
        "meta_element_set_no": 999,
        "meta_rev_at_epoch": 64270,
        "meta_bstar": 0.00070820977,
        "meta_mean_motion_dot": 3.284e-05,
        "meta_mean_motion_ddot": 0,
        "tle_line1": "1 31810U 99025CGY 25336.77364346  .00003284  00000+0  70821-3 0  9994",
        "tle_line2": "2 31810  98.2699 352.4032 0214122 170.6735 189.8534 14.45755419642700"
      },
      "geometry": {
        "type": "Point",
        "coordinates": [
          172.91048392665186,
          -16.26805956588756
        ]
      }
    },
    {
      "type": "Feature",
      "properties": {
        "norad_id": 31813,
        "name": "FENGYUN 1C DEB",
        "group": "fengyun-1c-debris",
        "lat": 18.100774196095458,
        "lon": 55.38183490526657,
        "alt_km": 637.9928158936063,
        "timestamp": "2025-12-05T18:53:13.565992+00:00",
        "meta_object_name": "FENGYUN 1C DEB",
        "meta_object_id": "1999-025CHB",
        "meta_epoch": "2025-12-04T11:20:01.254336",
        "meta_mean_motion": 14.49739183,
        "meta_eccentricity": 0.0136604,
        "meta_inclination": 99.4278,
        "meta_ra_of_asc_node": 57.0258,
        "meta_arg_of_pericenter": 358.2067,
        "meta_mean_anomaly": 1.8616,
        "meta_ephemeris_type": 0,
        "meta_classification_type": "U",
        "meta_norad_cat_id": 31813,
        "meta_element_set_no": 999,
        "meta_rev_at_epoch": 97136,
        "meta_bstar": 0.00072688,
        "meta_mean_motion_dot": 3.093e-05,
        "meta_mean_motion_ddot": 0,
        "tle_line1": "1 31813U 99025CHB 25338.47223674  .00003093  00000+0  72688-3 0  9995",
        "tle_line2": "2 31813  99.4278  57.0258 0136604 358.2067   1.8616 14.49739183971362"
      },
      "geometry": {
        "type": "Point",
        "coordinates": [
          55.38183490526657,
          18.100774196095458
        ]
      }
    },
    {
      "type": "Feature",
      "properties": {
        "norad_id": 31814,
        "name": "FENGYUN 1C DEB",
        "group": "fengyun-1c-debris",
        "lat": 69.31324163967611,
        "lon": -123.70153292080171,
        "alt_km": 1099.98240803916,
        "timestamp": "2025-12-05T18:53:13.566002+00:00",
        "meta_object_name": "FENGYUN 1C DEB",
        "meta_object_id": "1999-025CHC",
        "meta_epoch": "2025-11-24T20:29:55.792608",
        "meta_mean_motion": 13.66443116,
        "meta_eccentricity": 0.0229144,
        "meta_inclination": 99.5736,
        "meta_ra_of_asc_node": 18.9365,
        "meta_arg_of_pericenter": 261.41,
        "meta_mean_anomaly": 96.1022,
        "meta_ephemeris_type": 0,
        "meta_classification_type": "U",
        "meta_norad_cat_id": 31814,
        "meta_element_set_no": 999,
        "meta_rev_at_epoch": 61555,
        "meta_bstar": 0.00071428,
        "meta_mean_motion_dot": 6.63e-06,
        "meta_mean_motion_ddot": 0,
        "tle_line1": "1 31814U 99025CHC 25328.85411797  .00000663  00000+0  71428-3 0  9993",
        "tle_line2": "2 31814  99.5736  18.9365 0229144 261.4100  96.1022 13.66443116615553"
      },
      "geometry": {
        "type": "Point",
        "coordinates": [
          -123.70153292080171,
          69.31324163967611
        ]
      }
    },
    {
      "type": "Feature",
      "properties": {
        "norad_id": 31815,
        "name": "FENGYUN 1C DEB",
        "group": "fengyun-1c-debris",
        "lat": -64.70019643533443,
        "lon": -14.657955982859702,
        "alt_km": 878.5535858037656,
        "timestamp": "2025-12-05T18:53:13.566013+00:00",
        "meta_object_name": "FENGYUN 1C DEB",
        "meta_object_id": "1999-025CHD",
        "meta_epoch": "2025-12-05T05:34:39.382464",
        "meta_mean_motion": 14.10278174,
        "meta_eccentricity": 0.00595552,
        "meta_inclination": 98.7675,
        "meta_ra_of_asc_node": 325.7462,
        "meta_arg_of_pericenter": 43.2551,
        "meta_mean_anomaly": 317.3274,
        "meta_ephemeris_type": 0,
        "meta_classification_type": "U",
        "meta_norad_cat_id": 31815,
        "meta_element_set_no": 999,
        "meta_rev_at_epoch": 95433,
        "meta_bstar": 8.6074478e-05,
        "meta_mean_motion_dot": 1.12e-06,
        "meta_mean_motion_ddot": 0,
        "tle_line1": "1 31815U 99025CHD 25339.23240026  .00000112  00000+0  86074-4 0  9996",
        "tle_line2": "2 31815  98.7675 325.7462 0059555  43.2551 317.3274 14.10278174954336"
      },
      "geometry": {
        "type": "Point",
        "coordinates": [
          -14.657955982859702,
          -64.70019643533443
        ]
      }
    }
  ]
}